{
  "type": "FeatureCollection",
  "features": [
    {
      "type": "Feature",
      "properties": {
        "norad_id": 66956,
        "name": "HULIANWANG DIGUI-117",
        "group": "last-30-days",
        "lat": 49.04124206394647,
        "lon": 161.93112352565439,
        "alt_km": 996.0390281315586,
        "timestamp": "2025-12-13T05:42:56.158203+00:00",
        "meta_object_name": "HULIANWANG DIGUI-117",
        "meta_object_id": "2025-287D",
        "meta_epoch": "2025-12-11T19:45:00.614592",
        "meta_mean_motion": 13.6901764,
        "meta_eccentricity": 0.00072845,
        "meta_inclination": 86.4968,
        "meta_ra_of_asc_node": 346.4938,
        "meta_arg_of_pericenter": 195.1574,
        "meta_mean_anomaly": 164.9368,
        "meta_ephemeris_type": 0,
        "meta_classification_type": "U",
        "meta_norad_cat_id": 66956,
        "meta_element_set_no": 999,
        "meta_rev_at_epoch": 40,
        "meta_bstar": 1.8810541e-05,
        "meta_mean_motion_dot": 3.3e-07,
        "meta_mean_motion_ddot": 0,
        "tle_line1": "1 66956U 25287D   25345.82292378  .00000033  00000+0  18811-4 0  9994",
        "tle_line2": "2 66956  86.4968 346.4938 0007284 195.1574 164.9368 13.69017640   403"
      },
      "geometry": {
        "type": "Point",
        "coordinates": [
          161.93112352565439,
          49.04124206394647
        ]
      }
    },
    {
      "type": "Feature",
      "properties": {
        "norad_id": 66957,
        "name": "HULIANWANG DIGUI-118",
        "group": "last-30-days",
        "lat": 47.25740157033584,
        "lon": 162.16870640646692,
        "alt_km": 995.5804683199476,
        "timestamp": "2025-12-13T05:42:56.158214+00:00",
        "meta_object_name": "HULIANWANG DIGUI-118",
        "meta_object_id": "2025-287E",
        "meta_epoch": "2025-12-10T19:11:19.771296",
        "meta_mean_motion": 13.69138079,
        "meta_eccentricity": 0.00073806,
        "meta_inclination": 86.4949,
        "meta_ra_of_asc_node": 346.8611,
        "meta_arg_of_pericenter": 196.974,
        "meta_mean_anomaly": 163.1173,
        "meta_ephemeris_type": 0,
        "meta_classification_type": "U",
        "meta_norad_cat_id": 66957,
        "meta_element_set_no": 999,
        "meta_rev_at_epoch": 26,
        "meta_bstar": -0.00019717069,
        "meta_mean_motion_dot": -1.54e-06,
        "meta_mean_motion_ddot": 0,
        "tle_line1": "1 66957U 25287E   25344.79953439 -.00000154  00000+0 -19717-3 0  9993",
        "tle_line2": "2 66957  86.4949 346.8611 0007380 196.9740 163.1173 13.69138079   265"
      },
      "geometry": {
        "type": "Point",
        "coordinates": [
          162.16870640646692,
          47.25740157033584
        ]
      }
    },
    {
      "type": "Feature",
      "properties": {
        "norad_id": 66958,
        "name": "CZ-6A R/B",
        "group": "last-30-days",
        "lat": 11.481983040356791,
        "lon": 165.2003094093866,
        "alt_km": 882.5638138425284,
        "timestamp": "2025-12-13T05:42:56.158224+00:00",
        "meta_object_name": "CZ-6A R/B",
        "meta_object_id": "2025-287F",
        "meta_epoch": "2025-12-12T01:22:36.436224",
        "meta_mean_motion": 13.94919215,
        "meta_eccentricity": 0.01072259,
        "meta_inclination": 86.5058,
        "meta_ra_of_asc_node": 346.3601,
        "meta_arg_of_pericenter": 104.2054,
        "meta_mean_anomaly": 257.106,
        "meta_ephemeris_type": 0,
        "meta_classification_type": "U",
        "meta_norad_cat_id": 66958,
        "meta_element_set_no": 999,
        "meta_rev_at_epoch": 44,
        "meta_bstar": 0.00019796978,
        "meta_mean_motion_dot": 2.98e-06,
        "meta_mean_motion_ddot": 0,
        "tle_line1": "1 66958U 25287F   25346.05736616  .00000298  00000+0  19797-3 0  9996",
        "tle_line2": "2 66958  86.5058 346.3601 0107225 104.2054 257.1060 13.94919215   447"
      },
      "geometry": {
        "type": "Point",
        "coordinates": [
          165.2003094093866,
          11.481983040356791
        ]
      }
    },
    {
      "type": "Feature",
      "properties": {
        "norad_id": 66988,
        "name": "YAOGAN-47",
        "group": "last-30-days",
        "lat": -25.457119924446506,
        "lon": -131.2487913174043,
        "alt_km": 502.5318861520336,
        "timestamp": "2025-12-13T05:42:56.158237+00:00",
        "meta_object_name": "YAOGAN-47",
        "meta_object_id": "2025-289A",
        "meta_epoch": "2025-12-11T14:58:29.248032",
        "meta_mean_motion": 15.23120362,
        "meta_eccentricity": 8.584e-05,
        "meta_inclination": 97.5268,
        "meta_ra_of_asc_node": 50.7421,
        "meta_arg_of_pericenter": 73.685,
        "meta_mean_anomaly": 286.448,
        "meta_ephemeris_type": 0,
        "meta_classification_type": "U",
        "meta_norad_cat_id": 66988,
        "meta_element_set_no": 999,
        "meta_rev_at_epoch": 37,
        "meta_bstar": 0.00024920475,
        "meta_mean_motion_dot": 5.809e-05,
        "meta_mean_motion_ddot": 0,
        "tle_line1": "1 66988U 25289A   25345.62394963  .00005809  00000+0  24920-3 0  9995",
        "tle_line2": "2 66988  97.5268  50.7421 0000858  73.6850 286.4480 15.23120362   372"
      },
      "geometry": {
        "type": "Point",
        "coordinates": [
          -131.2487913174043,
          -25.457119924446506
        ]
      }
    },
    {
      "type": "Feature",
      "properties": {
        "norad_id": 66989,
        "name": "CZ-4B R/B",
        "group": "last-30-days",
        "lat": 80.42730731277453,
        "lon": -75.7517601029618,
        "alt_km": 366.3544410950208,
        "timestamp": "2025-12-13T05:42:56.158248+00:00",
        "meta_object_name": "CZ-4B R/B",
        "meta_object_id": "2025-289B",
        "meta_epoch": "2025-12-12T03:15:47.798496",
        "meta_mean_motion": 15.66937335,
        "meta_eccentricity": 0.01502028,
        "meta_inclination": 97.5268,
        "meta_ra_of_asc_node": 51.4361,
        "meta_arg_of_pericenter": 5.1776,
        "meta_mean_anomaly": 355.0994,
        "meta_ephemeris_type": 0,
        "meta_classification_type": "U",
        "meta_norad_cat_id": 66989,
        "meta_element_set_no": 999,
        "meta_rev_at_epoch": 47,
        "meta_bstar": 0.00078308871,
        "meta_mean_motion_dot": 0.00155612,
        "meta_mean_motion_ddot": 9.01934e-06,
        "tle_line1": "1 66989U 25289B   25346.13596989  .00155612  90193-5  78309-3 0  9991",
        "tle_line2": "2 66989  97.5268  51.4361 0150202   5.1776 355.0994 15.66937335   477"
      },
      "geometry": {
        "type": "Point",
        "coordinates": [
          -75.7517601029618,
          80.42730731277453
        ]
      }
    },
    {
      "type": "Feature",
      "properties": {
        "norad_id": 66990,
        "name": "TJS-22",
        "group": "last-30-days",
        "lat": 13.476544246779948,
        "lon": -18.77277943750997,
        "alt_km": 22073.54080501922,
        "timestamp": "2025-12-13T05:42:56.158259+00:00",
        "meta_object_name": "TJS-22",
        "meta_object_id": "2025-290A",
        "meta_epoch": "2025-12-10T07:11:32.845344",
        "meta_mean_motion": 2.15443148,
        "meta_eccentricity": 0.6664534,
        "meta_inclination": 20.1261,
        "meta_ra_of_asc_node": 301.1464,
        "meta_arg_of_pericenter": 180.6877,
        "meta_mean_anomaly": 177.6237,
        "meta_ephemeris_type": 0,
        "meta_classification_type": "U",
        "meta_norad_cat_id": 66990,
        "meta_element_set_no": 999,
        "meta_rev_at_epoch": 3,
        "meta_bstar": 0.079788243,
        "meta_mean_motion_dot": -3.8e-07,
        "meta_mean_motion_ddot": 0,
        "tle_line1": "1 66990U 25290A   25344.29968571 -.00000038  00000+0  79788-1 0  9994",
        "tle_line2": "2 66990  20.1261 301.1464 6664534 180.6877 177.6237  2.15443148    32"
      },
      "geometry": {
        "type": "Point",
        "coordinates": [
          -18.77277943750997,
          13.476544246779948
        ]
      }
    },
    {
      "type": "Feature",
      "properties": {
        "norad_id": 66991,
        "name": "CZ-3B R/B",
        "group": "last-30-days",
        "lat": 2.0846157159357173,
        "lon": -54.72341692108201,
        "alt_km": 34329.815016986475,
        "timestamp": "2025-12-13T05:42:56.158274+00:00",
        "meta_object_name": "CZ-3B R/B",
        "meta_object_id": "2025-290B",
        "meta_epoch": "2025-12-10T06:44:55.577184",
        "meta_mean_motion": 2.37676924,
        "meta_eccentricity": 0.72420555,
        "meta_inclination": 28.4645,
        "meta_ra_of_asc_node": 302.5976,
        "meta_arg_of_pericenter": 179.3847,
        "meta_mean_anomaly": 182.8677,
        "meta_ephemeris_type": 0,
        "meta_classification_type": "U",
        "meta_norad_cat_id": 66991,
        "meta_element_set_no": 999,
        "meta_rev_at_epoch": 3,
        "meta_bstar": 0.00043781284,
        "meta_mean_motion_dot": 0.00018897,
        "meta_mean_motion_ddot": 4.56211e-07,
        "tle_line1": "1 66991U 25290B   25344.28119881  .00018897  45621-6  43781-3 0  9998",
        "tle_line2": "2 66991  28.4645 302.5976 7242055 179.3847 182.8677  2.37676924    36"
      },
      "geometry": {
        "type": "Point",
        "coordinates": [
          -54.72341692108201,
          2.0846157159357173
        ]
      }
    }
  ]
}